     3.04           N: GNSS NAV DATA    M: MIXED            RINEX VERSION / TYPE
sbf2rin-15.10.3                         20260504 112714 UTC PGM / RUN BY / DATE 
GPSA   1.9558E-08  2.2352E-08 -1.1921E-07 -1.1921E-07       IONOSPHERIC CORR    
GPSB   1.2083E+05  9.8304E+04 -1.9661E+05 -6.5536E+04       IONOSPHERIC CORR    
GAL    1.1100E+02  5.4688E-02  1.6632E-02  0.0000E+00       IONOSPHERIC CORR    
GPUT  9.3132257462E-10 2.664535259E-15 319488 2417          TIME SYSTEM CORR    
GAUT  0.0000000000E+00 0.000000000E+00  86400 2417          TIME SYSTEM CORR    
GAGP  1.5716068447E-09-1.332267630E-15  86400 2417          TIME SYSTEM CORR    
    18                                                      LEAP SECONDS        
                                                            END OF HEADER       
E18 2026 05 04 10 40 00 2.741265867371E-03 4.231992534187E-11 0.000000000000E+00
     8.100000000000E+01 5.843750000000E+01 8.215699359713E-09-4.684065859402E-01
     3.296881914139E-06 1.666021478595E-01 1.817941665649E-06 5.289307102203E+03
     1.248000000000E+05 1.793727278709E-06 9.489008485006E-01-1.359730958939E-07
     8.539701457300E-01 2.583125000000E+02 3.097921680141E+00-1.223336671168E-08
     1.000041655749E-11 5.170000000000E+02 2.417000000000E+03
     3.120000000000E+00 1.300000000000E+02-4.889443516731E-09-5.587935447693E-09
     1.269550000000E+05
E19 2026 05 04 11 10 00 2.931243274361E-03 2.893330020015E-11 0.000000000000E+00
     8.400000000000E+01-1.175000000000E+01 2.791902008211E-09 7.115224900648E-01
    -4.209578037262E-07 4.135738126934E-04 8.294358849525E-06 5.440621484756E+03
     1.266000000000E+05 6.705522537231E-08-2.061482900535E+00-7.450580596924E-09
     9.731998431884E-01 1.683750000000E+02-8.888635989996E-01-5.254504585493E-09
     6.596703350602E-10 5.170000000000E+02 2.417000000000E+03
     3.120000000000E+00 0.000000000000E+00-6.286427378654E-09-6.984919309616E-09
     1.272650000000E+05
E26 2026 05 04 11 00 00 2.945369924419E-04 1.088551471184E-11 0.000000000000E+00
     8.300000000000E+01-4.687500000000E+01 2.878691337620E-09 2.657914058709E+00
    -2.468004822731E-06 1.472570002079E-04-1.268461346626E-06 5.440602800369E+03
     1.260000000000E+05-2.793967723846E-08 2.128777221419E+00 6.146728992462E-08
     9.910952255857E-01 3.814375000000E+02-9.798354801379E-02-5.785598136242E-09
    -2.957266039144E-10 5.170000000000E+02 2.417000000000E+03
     3.120000000000E+00 0.000000000000E+00-7.450580596924E-09-8.149072527885E-09
     1.268970000000E+05
E29 2026 05 04 11 10 00-2.029436873272E-04-3.595346242946E-12 0.000000000000E+00
     8.400000000000E+01-1.821875000000E+01 3.017982853957E-09 1.404946778770E+00
    -7.897615432739E-07 7.471279241145E-05 8.145347237587E-06 5.440609029770E+03
     1.266000000000E+05 0.000000000000E+00-2.069229565249E+00 2.048909664154E-08
     9.611994091507E-01 1.664687500000E+02-8.388393873818E-01-5.327721921003E-09
     6.364550823374E-10 5.170000000000E+02 2.417000000000E+03
     3.600000000000E+00 0.000000000000E+00-5.355104804039E-09-5.355104804039E-09
     1.272950000000E+05
E33 2026 05 04 11 10 00-1.338735455647E-05-1.548983163957E-12 0.000000000000E+00
     8.400000000000E+01-4.059375000000E+01 2.727970773790E-09 1.615621688900E+00
    -2.030283212662E-06 5.649426020682E-05-5.606561899185E-07 5.440605737686E+03
     1.266000000000E+05 1.490116119385E-08 2.131866774203E+00 9.313225746155E-09
     9.978272366524E-01 3.726562500000E+02 2.510980635394E-01-5.640949253893E-09
    -2.539391490134E-10 5.170000000000E+02 2.417000000000E+03
     3.600000000000E+00 0.000000000000E+00-6.286427378654E-09-6.984919309616E-09
     1.272650000000E+05
E07 2026 05 04 11 10 00-6.149150431156E-05-2.572164703452E-12 0.000000000000E+00
     8.400000000000E+01-1.987500000000E+01 2.932622155484E-09 1.772830757060E+00
    -9.704381227493E-07 4.761016461998E-04 8.469447493553E-06 5.440616811752E+03
     1.266000000000E+05 2.607703208923E-08-2.069329070010E+00 1.676380634308E-08
     9.678244721283E-01 1.609375000000E+02-4.128825850055E-01-5.308435403356E-09
     6.614561237311E-10 2.580000000000E+02 2.417000000000E+03
     3.120000000000E+00 0.000000000000E+00 2.328306436539E-09 0.000000000000E+00
     1.273400000000E+05
E08 2026 05 04 10 40 00-1.393216080032E-04-7.020162229310E-12 0.000000000000E+00
     8.100000000000E+01-1.943750000000E+01 2.837975355922E-09 2.005583874699E+00
    -8.605420589447E-07 4.404004430398E-04 8.396804332733E-06 5.440617397308E+03
     1.248000000000E+05 1.303851604462E-08-2.066487356030E+00 3.725290298462E-08
     9.735400872123E-01 1.624687500000E+02-8.685213705441E-02-5.275576891810E-09
     7.153869415948E-10 2.580000000000E+02 2.417000000000E+03
     3.120000000000E+00 0.000000000000E+00-6.752088665962E-09 0.000000000000E+00
     1.271600000000E+05
E13 2026 05 04 11 10 00-5.396967753768E-05-8.384404281969E-13 0.000000000000E+00
     8.400000000000E+01-4.406250000000E+01 2.831189358972E-09-3.016707582551E+00
    -2.037733793259E-06 2.775973407552E-04-1.750886440277E-06 5.440608985901E+03
     1.266000000000E+05-1.303851604462E-08 2.131896319296E+00-1.862645149231E-08
     9.978086283345E-01 3.931875000000E+02 1.499097564802E-01-5.824885487004E-09
    -2.453673633927E-10 2.580000000000E+02 2.417000000000E+03
     3.600000000000E+00 0.000000000000E+00 2.095475792885E-09 0.000000000000E+00
     1.273400000000E+05
E18 2026 05 04 10 40 00 2.741265925579E-03 4.231992534187E-11 0.000000000000E+00
     8.100000000000E+01 5.843750000000E+01 8.215699359713E-09-4.684065859402E-01
     3.296881914139E-06 1.666021478595E-01 1.817941665649E-06 5.289307102203E+03
     1.248000000000E+05 1.793727278709E-06 9.489008485006E-01-1.359730958939E-07
     8.539701457300E-01 2.583125000000E+02 3.097921680141E+00-1.223336671168E-08
     1.000041655749E-11 2.580000000000E+02 2.417000000000E+03
     3.120000000000E+00 1.600000000000E+01-4.889443516731E-09 0.000000000000E+00
     1.269900000000E+05
E19 2026 05 04 11 10 00 2.931242983323E-03 2.893330020015E-11 0.000000000000E+00
     8.400000000000E+01-1.175000000000E+01 2.791902008211E-09 7.115224900648E-01
    -4.209578037262E-07 4.135738126934E-04 8.294358849525E-06 5.440621484756E+03
     1.266000000000E+05 6.705522537231E-08-2.061482900535E+00-7.450580596924E-09
     9.731998431884E-01 1.683750000000E+02-8.888635989996E-01-5.254504585493E-09
     6.596703350602E-10 2.580000000000E+02 2.417000000000E+03
     3.120000000000E+00 0.000000000000E+00-6.286427378654E-09 0.000000000000E+00
     1.273400000000E+05
E26 2026 05 04 11 00 00 2.945369924419E-04 1.088551471184E-11 0.000000000000E+00
     8.300000000000E+01-4.687500000000E+01 2.878691337620E-09 2.657914058709E+00
    -2.468004822731E-06 1.472570002079E-04-1.268461346626E-06 5.440602800369E+03
     1.260000000000E+05-2.793967723846E-08 2.128777221419E+00 6.146728992462E-08
     9.910952255857E-01 3.814375000000E+02-9.798354801379E-02-5.785598136242E-09
    -2.957266039144E-10 2.580000000000E+02 2.417000000000E+03
     3.120000000000E+00 0.000000000000E+00-7.450580596924E-09 0.000000000000E+00
     1.269300000000E+05
E29 2026 05 04 11 10 00-2.029445022345E-04-3.595346242946E-12 0.000000000000E+00
     8.400000000000E+01-1.821875000000E+01 3.017982853957E-09 1.404946778770E+00
    -7.897615432739E-07 7.471279241145E-05 8.145347237587E-06 5.440609029770E+03
     1.266000000000E+05 0.000000000000E+00-2.069229565249E+00 2.048909664154E-08
     9.611994091507E-01 1.664687500000E+02-8.388393873818E-01-5.327721921003E-09
     6.364550823374E-10 2.580000000000E+02 2.417000000000E+03
     3.600000000000E+00 0.000000000000E+00-5.355104804039E-09 0.000000000000E+00
     1.273400000000E+05
E33 2026 05 04 11 10 00-1.338735455647E-05-1.548983163957E-12 0.000000000000E+00
     8.400000000000E+01-4.059375000000E+01 2.727970773790E-09 1.615621688900E+00
    -2.030283212662E-06 5.649426020682E-05-5.606561899185E-07 5.440605737686E+03
     1.266000000000E+05 1.490116119385E-08 2.131866774203E+00 9.313225746155E-09
     9.978272366524E-01 3.726562500000E+02 2.510980635394E-01-5.640949253893E-09
    -2.539391490134E-10 2.580000000000E+02 2.417000000000E+03
     3.600000000000E+00 0.000000000000E+00-6.286427378654E-09 0.000000000000E+00
     1.273400000000E+05
C01 2026 05 04 11 00 00-7.661292329431E-07-5.506706202141E-14 0.000000000000E+00
     1.000000000000E+00-5.575156250000E+02 6.627776073477E-09 8.479213334984E-01
    -1.821806654334E-05 3.402490401641E-04 1.045083627105E-05 6.493468460083E+03
     1.260000000000E+05 1.620501279831E-07-1.286743448544E-01-8.335337042809E-08
     8.403312902570E-02-3.140156250000E+02-1.652521112995E+00-5.512015311848E-09
    -6.060966749308E-10 0.000000000000E+00 1.061000000000E+03 0.000000000000E+00
     2.000000000000E+00 0.000000000000E+00 4.500000000000E-09 4.500000000000E-09
     1.268976000000E+05 1.000000000000E+00
C02 2026 05 04 11 00 00 3.370223566890E-07 2.930988785010E-14 0.000000000000E+00
     1.000000000000E+00-5.282968750000E+02 1.168655822063E-08 9.660650542015E-01
    -1.738453283906E-05 3.004894824699E-04-7.154885679483E-06 6.493427915573E+03
     1.260000000000E+05-5.457550287247E-07-5.977950732729E-01 5.192123353481E-07
     4.452284381230E-02 2.189843750000E+02-2.350323524912E+00-1.055686830737E-08
    -6.678849629467E-11 0.000000000000E+00 1.061000000000E+03 0.000000000000E+00
     2.000000000000E+00 0.000000000000E+00 4.730000000000E-08 4.730000000000E-08
     1.268976000000E+05 1.000000000000E+00
